{"type": "FeatureCollection", "features": [{"type": "Feature", "properties": {"name": "Tutorial study area"}, "geometry": {"type": "Polygon", "coordinates": [[[76.83743352204496, 12.205450944381992], [76.86039503254506, 12.20394096136777], [76.88154708825591, 12.206508915060407], [76.88073677842691, 12.221880380230225], [76.87807586982578, 12.235456741533172], [76.85511198652246, 12.23696857736732], [76.83671113161232, 12.23392856771533], [76.83569238911454, 12.21947299688454], [76.83743352204496, 12.205450944381992]]]}}]}